GOES 17                 
1 43226U 18022A   23221.45014289 -.00000097  00000+0  00000+0 0  9998
2 43226   0.0351 266.8874 0001937 232.0251 236.0891  1.00270027 19989
HISPASAT 30W-6          
1 43228U 18023A   23221.39332794 -.00000223  00000+0  00000+0 0  9999
2 43228   0.0384  54.5123 0003982  57.3822 317.3089  1.00270652 20045
SUPERBIRD-B3            
1 43271U 18033A   23221.00882972 -.00000100  00000+0  00000+0 0  9998
2 43271   0.0399 263.1033 0001166 253.9156 325.3598  1.00271377 19589
HYLAS 4                 
1 43272U 18033B   23221.32098112 -.00000241  00000+0  00000+0 0  9995
2 43272   0.0812 266.8644 0001249 256.0970 236.6292  1.00270138 19611
IRNSS-1I                
1 43286U 18035A   23219.76230203  .00000066  00000+0  00000+0 0  9990
2 43286  29.1875  90.6338 0018948 179.6760  15.1624  1.00273509 19592
USA 283                 
1 43339U 18036A   23220.49440257 -.00000325  00000+0  00000+0 0  9993
2 43339   0.0183  91.3716 0000187 150.3739  27.0714  1.00270324  8274
COSMOS 2526             
1 43432U 18037A   23221.48077352 -.00000352  00000+0  00000+0 0  9990
2 43432   0.0255 105.7338 0000411  22.7596 130.3485  1.00270269 19500
APSTAR 6C               
1 43450U 18041A   23221.01854913 -.00000325  00000+0  00000+0 0  9990
2 43450   0.0644 264.5945 0001932 269.6321 283.7063  1.00272145 19383
BANGABANDHUSAT-1        
1 43463U 18044A   23221.11091104 -.00000369  00000+0  00000+0 0  9991
2 43463   0.0202 192.4652 0002260 335.5444 308.3486  1.00271355 19278
SES-12                  
1 43488U 18049A   23220.41497573 -.00000277  00000+0  00000+0 0  9993
2 43488   0.0123  46.6889 0001172 188.8179 325.5193  1.00272070 18948
FENGYUN 2H              
1 43491U 18050A   23221.05674910 -.00000136  00000+0  00000+0 0  9996
2 43491   2.2103  90.3598 0003240  87.4312 239.0638  1.00273577 19057
BEIDOU-2 IGSO-7         
1 43539U 18057A   23220.79316288 -.00000118  00000+0  00000+0 0  9997
2 43539  55.1229 172.0911 0065040 231.8500 310.6037  1.00291747 18690
TELSTAR 19V             
1 43562U 18059A   23221.38679057 -.00000287  00000+0  00000+0 0  9994
2 43562   0.0262 175.9222 0002626 324.6521 253.2714  1.00267785 18716
TELKOM 4 (MERAH PUTIH)  
1 43587U 18064A   23221.47327166 -.00000351  00000+0  00000+0 0  9990
2 43587   0.0049 272.9101 0001659 260.7035  62.4544  1.00273085 18402
TELSTAR 18V (APSTAR 5C) 
1 43611U 18069A   23220.72202233 -.00000301  00000+0  00000+0 0  9992
2 43611   0.0189  92.1467 0002000  51.6517 211.0780  1.00270783 18153
AZERSPACE 2 (IS-38)     
1 43632U 18074A   23221.05003740  .00000130  00000+0  00000+0 0  9999
2 43632   0.0167  98.2738 0001407  53.4039 228.6993  1.00271093 17984
HORIZONS-3E             
1 43633U 18074B   23221.37202132 -.00000038  00000+0  00000+0 0  9999
2 43633   0.0139 115.8309 0001331 171.0747 333.5964  1.00268984 17869
AEHF-4 (USA 288)        
1 43651U 18079A   23221.38591892 -.00000279  00000+0  00000+0 0  9996
2 43651   1.8530 327.0136 0003549 174.0265 247.9719  1.00270777 17835
BEIDOU-3 G1             
1 43683U 18085A   23220.99721552 -.00000286  00000+0  00000+0 0  9990
2 43683   1.4591 126.2298 0003323 339.2987 350.6095  1.00277342 17594
GSAT-29                 
1 43698U 18089A   23220.40695655  .00000078  00000+0  00000+0 0  9998
2 43698   0.0240  99.1334 0001693  19.9007  39.1180  1.00271047 17352
ES'HAIL 2               
1 43700U 18090A   23220.68785104  .00000137  00000+0  00000+0 0  9999
2 43700   0.0052 118.9195 0002422  58.4043  53.0143  1.00273372 17459
GEO-KOMPSAT-2A          
1 43823U 18100A   23221.38660447 -.00000351  00000+0  00000+0 0  9996
2 43823   0.0102  84.6807 0001920  28.1823 112.1768  1.00271337 17204
GSAT-11                 
1 43824U 18100B   23220.41079181 -.00000084  00000+0  00000+0 0  9992
2 43824   0.0663 272.3788 0006729 197.3578  68.7872  1.00270834 17167
GSAT-7A                 
1 43864U 18105A   23221.05352399  .00000019  00000+0  00000+0 0  9994
2 43864   0.0174 107.5910 0001965  22.4654 269.2986  1.00274105 16993
COSMOS 2533             
1 43867U 18107A   23221.19825259 -.00000046  00000+0  00000+0 0  9995
2 43867   0.0216 120.9590 0000691  69.1247 268.7075  1.00274911 16962
TJS-3                   
1 43874U 18110A   23219.78546035 -.00000006  00000+0  00000+0 0  9997
2 43874   0.1583  94.9013 0003818  75.9403 240.9151  1.00271076 17014
CHINASAT 2D (ZX 2D)     
1 43920U 19001A   23221.35358078 -.00000344  00000+0  00000+0 0  9998
2 43920   0.0634 273.5388 0000949 329.8129 331.4766  1.00269416 16898
HELLAS-SAT 4 & SGS-1    
1 44034U 19007A   23221.30743905  .00000146  00000+0  00000+0 0  9992
2 44034   0.0632 123.1467 0006264  27.2561 316.7827  1.00270701 16899
GSAT-31                 
1 44035U 19007B   23220.69220928  .00000118  00000+0  00000+0 0  9998
2 44035   0.0576 270.8893 0001470 287.6281  55.4710  1.00273323 16504
NUSANTARA SATU          
1 44048U 19009A   23220.40674647 -.00000242  00000+0  00000+0 0  9993
2 44048   0.0212 133.4070 0004722   4.6815 110.9942  1.00269732 16300
CHINASAT 6C (ZX 6C)     
1 44067U 19012A   23221.01854913 -.00000342  00000+0  00000+0 0  9993
2 44067   0.0567 114.7916 0006552  18.4982 321.0013  1.00275833 16275
WGS 10 (USA 291)        
1 44071U 19014A   23221.29632750  .00000040  00000+0  00000+0 0  9997
2 44071   0.0173  88.9380 0000314 167.7156 227.8273  1.00270595 16159
TIANLIAN 2-01           
1 44076U 19017A   23211.58190969 -.00000131  00000+0  00000+0 0  9999
2 44076   0.1979 263.9150 0034903 254.1628  79.2751  1.00268338 16056
ARABSAT-6A              
1 44186U 19021A   23221.26208859  .00000147  00000+0  00000+0 0  9996
2 44186   0.0433 343.3553 0005829 221.4436 237.5444  1.00287064 15695
BEIDOU-3 IGSO-1         
1 44204U 19023A   23220.92142854 -.00000214  00000+0  00000+0 0  9999
2 44204  57.1794  48.5181 0022786 193.7072 165.3807  1.00290497 15895
BEIDOU-2 G8             
1 44231U 19027A   23220.99808719 -.00000256  00000+0  00000+0 0  9995
2 44231   1.8904  81.2399 0006010 126.3244 253.4794  1.00269879 15618
YAMAL 601               
1 44307U 19031A   23220.26240080  .00000112  00000+0  00000+0 0  9995
2 44307   0.0150 123.4989 0002231  21.1148 315.3407  1.00272249 15452
AT&T T-16               
1 44333U 19034A   23221.02092435 -.00000122  00000+0  00000+0 0  9993
2 44333   0.0038 272.1044 0000301 351.8932 319.9112  1.00269969 15166
EUTELSAT 7C             
1 44334U 19034B   23221.32908747  .00000041  00000+0  00000+0 0  9998
2 44334   0.0761 229.2250 0003045 256.8346 316.9615  1.00270591 15677
BEIDOU-3 IGSO-2         
1 44337U 19035A   23220.73490118 -.00000128  00000+0  00000+0 0  9991
2 44337  55.1551 168.0262 0033291 198.3325 334.4564  1.00282951 15237
COSMOS 2539             
1 44457U 19048A   23221.33004628  .00000074  00000+0  00000+0 0  9991
2 44457   0.0210 115.3169 0000619 162.6472 170.3979  1.00271962 14772
EDRS-C                  
1 44475U 19049A   23221.03198449  .00000148  00000+0  00000+0 0  9996
2 44475   0.0963 261.0546 0000620 253.6047 205.3295  1.00276006 14736
INTELSAT 39 (IS-39)     
1 44476U 19049B   23221.29632750  .00000027  00000+0  00000+0 0  9999
2 44476   0.0087  87.0351 0001156 271.1044 127.9846  1.00270908 14670
AMOS-17                 
1 44479U 19050A   23221.25938648  .00000103  00000+0  00000+0 0  9990
2 44479   0.0057 262.5400 0001661 260.3794 264.9373  1.00273686 14727
AEHF-5 (USA 292)        
1 44481U 19051A   23220.40678222  .00000081  00000+0  00000+0 0  9994
2 44481   3.3948 304.8981 0043005 357.5227 215.1557  1.00270014 14787
EUTELSAT 5 WEST B       
1 44624U 19067A   23220.68166235 -.00000049  00000+0  00000+0 0  9991
2 44624   0.0864 319.1270 0004391 183.0033  55.1729  1.00271978 13972
MEV-1                   
1 44625U 19067B   23206.48672175 -.00000188  00000+0  00000+0 0  9993
2 44625   0.0503 256.5504 0001067 231.3973 322.6988  1.00270219 12384
TJS-4                   
1 44637U 19070A   23221.09632564 -.00000177  00000+0  00000+0 0  9990
2 44637   0.0840 272.3857 0002098 228.8293 294.2698  1.00272777 14081
BEIDOU-3 IGSO-3         
1 44709U 19073A   23220.60121274 -.00000194  00000+0  00000+0 0  9999
2 44709  56.5779 292.0347 0034999 188.5460 171.4787  1.00290363 13977
TIBA-1                  
1 44800U 19080A   23221.30743905  .00000149  00000+0  00000+0 0  9997
2 44800   0.0536 355.1575 0002375 168.4209 300.1579  1.00276411 13629
INMARSAT GX5            
1 44801U 19080B   23220.68488744  .00000067  00000+0  00000+0 0  9994
2 44801   0.0445  45.2632 0001928  96.5321  72.6618  1.00271540 13622
JCSAT-18 (KACIFIC 1)    
1 44868U 19091A   23220.95466042 -.00000208  00000+0  00000+0 0  9994
2 44868   0.0229 233.4874 0000499  17.8872 199.4670  1.00270786 13631
ELEKTRO-L 3             
1 44903U 19095A   23220.41114046 -.00000105  00000+0  00000+0 0  9999
2 44903   0.0874 294.7168 0001475 212.9786  33.0150  1.00273621 13222
SHIJIAN-20 (SJ-20)      
1 44910U 19097A   23221.04899142  .00000141  00000+0  00000+0 0  9995
2 44910   2.2329  87.5499 0004080  94.4974 193.0742  1.00276330 13236
TJS-5                   
1 44978U 20002A   23221.11646543 -.00000349  00000+0  00000+0 0  9991
2 44978   0.2299 285.3933 0000713 219.0201 322.3420  1.00267454 13239
GSAT-30                 
1 45026U 20005A   23221.09632564 -.00000172  00000+0  00000+0 0  9998
2 45026   0.0543  98.7474 0003164  14.7757 321.4839  1.00271097 13073
EUTELSAT KONNECT        
1 45027U 20005B   23221.32908747  .00000042  00000+0  00000+0 0  9999
2 45027   0.0473  92.9631 0000501 197.7720 152.4587  1.00268650 13861
JCSAT-17                
1 45245U 20013A   23221.28309531 -.00000318  00000+0  00000+0 0  9998
2 45245   5.7947 347.5402 0004244 158.0549  49.8241  1.00271072 12781
GEO-KOMPSAT-2B          
1 45246U 20013B   23221.38660447 -.00000351  00000+0  00000+0 0  9993
2 45246   0.0525 267.0881 0000887 339.2443 338.6985  1.00271482 12794
BEIDOU-3 G2             
1 45344U 20017A   23220.41192495 -.00000149  00000+0  00000+0 0  9997
2 45344   2.0328  14.8071 0003182 137.7926  32.3746  1.00272647 12802
